SES-2                   
1 37809U 11049A   26065.17822755 -.00000201  00000+0  00000+0 0  9990
2 37809   0.0237  76.2187 0002909 270.4439 154.3852  1.00271880 52935
QUETZSAT 1              
1 37826U 11054A   26065.17266987 -.00000247  00000+0  00000+0 0  9994
2 37826   0.0497 292.4662 0002808  72.1609 144.4120  1.00270897 48846
SES-4                   
1 38087U 12007A   26064.43622072 -.00000178  00000+0  00000+0 0  9995
2 38087   0.0359  66.5072 0002347 256.9214 334.7775  1.00260475 51182
SES-5                   
1 38652U 12036A   26064.86945597  .00000027  00000+0  00000+0 0  9994
2 38652   0.0593 310.9208 0002059  30.8824 139.7620  1.00271137 43420
ASTRA 2F                
1 38778U 12051A   26065.15932825  .00000145  00000+0  00000+0 0  9994
2 38778   0.0930 260.2006 0002343  10.4238 338.8298  1.00276400 40109
SES-6                   
1 39172U 13026A   26065.28828882 -.00000266  00000+0  00000+0 0  9992
2 39172   0.0619 290.2414 0001855  66.6496 230.3824  1.00271689 46699
O3B FM5                 
1 39188U 13031A   26065.09650725 -.00000026  00000+0  00000+0 0  9997
2 39188   0.0980  13.5954 0003333 322.1460  24.2376  5.00116473231888
O3B FM4                 
1 39189U 13031B   26064.81588385 -.00000026  00000+0  00000+0 0  9999
2 39189   0.0553 345.1263 0005084   8.8542   6.0077  5.00115220231870
O3B FM2                 
1 39190U 13031C   26065.08145578 -.00000026  00000+0  00000+0 0  9994
2 39190   0.0562 338.9132 0002827   5.0674  16.0049  5.00116024231956
O3B PFM                 
1 39191U 13031D   26065.09556941 -.00000026  00000+0  00000+0 0  9996
2 39191   0.0668   7.2787 0005147 352.3292   0.3862  5.00115906231517
ASTRA 2E                
1 39285U 13056A   26065.15932825  .00000145  00000+0  00000+0 0  9994
2 39285   0.0723  33.8083 0002183 305.9816 269.9212  1.00272924 45380
SES-8                   
1 39460U 13071A   26064.95863635 -.00000275  00000+0  00000+0 0  9990
2 39460   0.0543 271.6608 0001717 100.3856 231.7396  1.00272617 43403
ASTRA 5B                
1 39617U 14011B   26065.22970190  .00000132  00000+0  00000+0 0  9996
2 39617   0.0872 300.4648 0004046  28.2198 301.4298  1.00271993 43639
O3B FM3                 
1 40079U 14038A   26064.96230168 -.00000026  00000+0  00000+0 0  9996
2 40079   0.0530 353.4607 0000629  56.5269 310.0124  5.00115599207889
O3B FM7                 
1 40080U 14038B   26061.31035470 -.00000029  00000+0  00000+0 0  9996
2 40080   0.0588 348.9474 0004488 339.4059  31.6123  5.00115622212532
O3B FM6                 
1 40081U 14038C   26064.93539554 -.00000026  00000+0  00000+0 0  9997
2 40081   0.0549 351.2735 0002658 350.6773  18.0342  5.00115720212667
O3B FM8                 
1 40082U 14038D   26063.58947926 -.00000027  00000+0  00000+0 0  9995
2 40082   0.0558 350.6431 0002658 354.8269  14.5160  5.00115977212719
